CZ-2C R/B               
1 54039U 22132E   26037.46196137  .00044484  00000+0  56362-3 0  9994
2 54039  97.2960  39.9015 0017871 198.3497 161.7117 15.59157929185504
GSLV R/B                
1 54149U 22138AN  26036.89486009  .00004785  00000+0  41715-3 0  9994
2 54149  87.3863 177.0016 0019306 266.8043  93.0979 14.96529532179178
XRISM                   
1 57800U 23137A   26037.33484543  .00008547  00000+0  49179-3 0  9994
2 57800  31.0019 126.4010 0007996  85.4035 274.7516 15.11106214133041
ACS3                    
1 59588U 24077B   26037.30461528  .00024506  00000+0  20265-1 0  9994
2 59588  97.2244 345.4715 0045433 175.8701 184.2846 13.88312200 89842
SZ-21 MODULE            
1 66515U 25246C   26037.34113549  .00038963  00000+0  36895-3 0  9992
2 66515  41.4763  35.9805 0003013 279.0982  80.9518 15.66184885 13157
